<!doctype html>

<html>

<head>

<title>TLE for NORAD Catalog Number 44249</title>

</head>

<body>

<pre>
STARLINK-61             
1 44249U 19029Q   19301.87921342  .00000296  00000-0  34787-4 0  9994
2 44249  53.0009 178.5291 0001572  10.7425 349.3599 15.11210062 23061

</pre>
	
</body>

</html>
